#dP2018  2 16  0  0  0.00000000      96 __u+U ITR00 FIT  IAC
## 1988 432000.00000000   900.00000000 58165 0.0000000000000
+   88   C01C02C03C04C05C06C07C08C09C10C11C12C13C14E01E02E03
+        E04E05E07E08E09E11E12E14E18E19E24E26E30G01G02G03G04
+        G05G06G07G08G09G10G11G12G13G14G15G16G17G19G20G21G22
+        G23G24G25G26G27G28G29G30G31G32J01J02J03R01R02R03R04
+        R05R06R07R08R09R10R11R13R14R15R16R17R18R19R20R21R22
+        R23R24R26  0  0  0  0  0  0  0  0  0  0  0  0  0  0
++         0  0  0  0  0  0  0  0  0  0  0  0  0  0  0  0  0
++         0  0  0  0  0  0  0  0  0  0  0  0  0  0  0  0  0
++         0  0  0  0  0  0  0  0  0  0  0  0  0  0  0  0  0
++         0  0  0  0  0  0  0  0  0  0  0  0  0  0  0  0  0
++         0  0  0  0  0  0  0  0  0  0  0  0  0  0  0  0  0
++         0  0  0  0  0  0  0  0  0  0  0  0  0  0  0  0  0
%c M  cc GPS ccc cccc cccc cccc cccc ccccc ccccc ccccc ccccc
%c cc cc ccc ccc cccc cccc cccc cccc ccccc ccccc ccccc ccccc
%f  0.0000000  0.000000000  0.00000000000  0.000000000000000
%f  0.0000000  0.000000000  0.00000000000  0.000000000000000
%i    0    0    0    0      0      0      0      0         0
%i    0    0    0    0      0      0      0      0         0
/*                                                          
/*   RSA / INFORMATION & ANALYSIS CENTER (IAC) OF MCC       
/*   ULTRA-RAPID DETERMINATION                              
/* PCV:IGS14_1984 OL/AL:FES2004  NONE     YN ORB:CoN CLK:CoN
*  2018 02 16  2 15  0.00000000
PC01 -32302.068227  27087.320224   -924.012407    372.572736
PC02   4451.931365  41919.388435    -42.709269   -229.566487
PC03 -14766.938639  39463.352044  -1092.686369    -82.211559
PC04 -39630.312173  14340.320365   -473.636130   -109.708722
PC05  21938.896302  36000.332737     69.879986   -153.327910
PC06 -15367.932512  21324.948544  33145.246149   -680.719851
PC07 -22840.047211  35248.822806  -5583.675165   -313.082055
PC08  -5686.048211  32573.245554 -25929.254417    178.057029
PC09    546.697228  25148.981523  34014.871385   -399.481375
PC10 -11677.485794  36540.524131 -17763.141222    -19.554148
PC11  -3811.674281  16950.744483 -21757.744289   -393.333710
PC12 -18830.347834    340.598525 -20561.824355    381.529767
PC13   4221.885372  39426.458934 -13991.364916   -207.223588
PC14 -15734.127612  16104.229714  16500.419101    214.582949
PE01   -801.416397 -21544.140586  20283.584698   -277.708607
PE02    832.346907  21520.759268 -20300.865205      4.844518
PE03  11148.650247  16688.180182  21753.425910      0.355742
PE04 -27171.158387  -8534.941970  -8054.976706     23.176791
PE05 -11444.695461  15088.533489  22746.218759    321.143261
PE07  27306.369690  -4659.733207 -10424.045005     83.450187
PE08  27244.938818   8232.405533   8119.521040   6641.014669
PE09 -27287.342089   4834.300711  10418.742111   6873.679550
PE11 -15877.842063   5001.508281 -24469.294273   1848.801433
PE12 -19189.658860 -15951.156857 -15894.975204   3516.973063
PE14  17756.553457  -4117.990485  16351.419878   6630.327046
PE18 -14796.344476  14313.179994 -24496.872606   6424.376914
PE19  -9121.336492 -16824.696279 -22579.801602     19.455643
PE24 -21695.097767  14364.407705  14080.892205   6860.069404
PE26   3629.828696 -22663.910637  18702.334537   6265.392800
PE30  16021.908664   5019.046399 -24388.187997   6073.610974
PG01  13246.185779 -12807.609990  18883.243201    -29.066827
PG02 -13736.842620 -12484.979965 -18546.665777    199.080118
PG03  23225.381849 -12826.078570     -2.075959     10.229575
PG04   6593.866366  13358.512961 -22224.371949     37.933892
PG05 -20705.773899  -1899.522695 -16742.250527    -14.217901
PG06  -7513.485697 -22719.978484 -11469.773312    414.423418
PG07   5904.273726 -24596.887855  -7101.983523    236.140124
PG08  22607.896325   2122.485233  13948.157945    -91.332856
PG09   5203.138474 -14700.667847 -21536.679295    501.301250
PG10   1114.149164  16187.204854  21033.688530    160.401422
PG11  13536.738915  -9202.485228  20373.848566   -736.316927
PG12 -24269.332258  10362.355700   1599.685736    350.071209
PG13 -22839.038943 -11233.101612   7455.630872    -95.599732
PG14  17688.406913  18716.078280   7139.193284    -94.005904
PG15 -22806.485701    123.126578  13713.646873   -356.985315
PG16  20626.265232   2872.091961 -16871.879033     32.161048
PG17 -10949.531832 -19385.479646  14968.076579   -122.875352
PG19 -16687.595023 -18881.524695   7780.433599   -456.790179
PG20 -22530.318477  13887.732752  -2058.012957    501.004697
PG21  -2180.098149  26015.913084  -3990.826939   -429.907597
PG22  24114.342578  -8558.611898   7388.079899   -293.058706
PG23  17269.413106  -5982.766829 -19145.171994   -218.937868
PG24 -14341.965878   9603.578551  20001.268147    -46.106551
PG25 -17155.147054  17380.738376 -10309.666240   -539.433163
PG26  12144.822825  10301.523709 -21274.864129   -249.007209
PG27  23600.258044  12256.102531   2294.473798    367.232581
PG28   3597.199636 -16752.631891  20935.316076    689.172148
PG29  -9514.999978  11312.403283 -22077.745442    495.704323
PG30    974.042332 -26431.441294   1304.937295    103.167593
PG31   7673.380818  21834.535725 -12597.450606    141.443534
PG32  11924.265573  18884.663181  14454.015259   -532.095590
PJ01 -29758.275038  28971.837396  12558.202193 999999.999999
PJ02 -28771.847975  26922.174987  19465.900496     -0.083964
PJ03 -27409.497684  16931.659384 -22556.671707      0.196658
PR01  13585.932407 -10268.365879 -18986.524881     22.149414
PR02  -7688.332097 -10003.698771 -22127.977218    295.459070
PR03 -22604.500390  -3831.223009 -11104.412912    124.250339
PR04 -24107.715983   4835.932759   6772.508430    250.064758
PR05 -11946.163034  10597.149423  19882.417836   -248.777273
PR06   8844.865372   9869.609193  21786.474635    127.112826
PR07  22830.650651   3699.802367  10825.661487    -30.214400
PR08  24362.932214  -4465.118432  -6054.533846     38.351503
PR09   -997.672977  19423.355181 -16527.645533     48.057073
PR10   9706.159762   4385.803523 -23199.232819     18.369108
PR11  15108.881975 -13216.536593 -15704.552061    -21.919929
PR13    333.312504 -18915.906995  17090.277996     -7.513929
PR14  -9830.568232  -4686.504580  23075.657313     24.737035
PR15 -14554.202416  10083.864929  18317.558925     -6.479859
PR16 -11071.329310  22910.362274    -41.108162     85.711921
PR17 -16587.696883 -15967.223825 -10998.146196    109.563901
PR18 -12812.499327  -1138.422147 -21993.909291    184.996130
PR19  -1975.196972  14567.204846 -20839.463105    -44.727103
PR20  10632.682460  22315.202200  -6393.700639   -327.363048
PR21  16584.202289  15751.930436  11278.837655     28.940910
PR22  11983.454622   -438.742511  22543.326507    -19.154095
PR23   -712.747372 -16928.578625  19064.950474    136.526122
PR24 -11360.378712 -22095.637655   5722.563973   -162.504701
PR26  10908.018991  22075.635306  -6604.617692     -0.009698
EOF
